{"type": "FeatureCollection", "features": [ {"type": "Feature", "properties": {"norad_id": 17070, "name": "POLAR BEAR", "group": "nnss", "lat": 17.09554928261213, "lon": -176.0885815301382, "alt_km": 988.2080178474562, "timestamp": "2025-12-12T05:47:29.039546+00:00", "meta": {"OBJECT_NAME": "POLAR BEAR", "OBJECT_ID": "1986-088A", "EPOCH": "2025-12-12T01:00:29.117952", "MEAN_MOTION": 13.75250527, "ECCENTRICITY": 0.00409337, "INCLINATION": 89.6174, "RA_OF_ASC_NODE": 183.8017, "ARG_OF_PERICENTER": 121.2616, "MEAN_ANOMALY": 350.2625, "EPHEMERIS_TYPE": 0, "CLASSIFICATION_TYPE": "U", "NORAD_CAT_ID": 17070, "ELEMENT_SET_NO": 999, "REV_AT_EPOCH": 95969, "BSTAR": 0.00014193527, "MEAN_MOTION_DOT": 1.48e-06, "MEAN_MOTION_DDOT": 0}, "tle": {"line1": "1 17070U 86088A   25346.04200368  .00000148  00000+0  14194-3 0  9992", "line2": "2 17070  89.6174 183.8017 0040933 121.2616 350.2625 13.75250527959696"}}, "geometry": {"type": "Point", "coordinates": [-176.0885815301382, 17.09554928261213]}}, {"type": "Feature", "properties": {"norad_id": 18361, "name": "OSCAR 27", "group": "nnss", "lat": -29.489215998852234, "lon": 79.46543953560895, "alt_km": 1116.574427965309, "timestamp": "2025-12-12T05:47:29.039556+00:00", "meta": {"OBJECT_NAME": "OSCAR 27", "OBJECT_ID": "1987-080A", "EPOCH": "2025-12-11T12:05:00.149280", "MEAN_MOTION": 13.44906405, "ECCENTRICITY": 0.01028125, "INCLINATION": 90.3742, "RA_OF_ASC_NODE": 79.2261, "ARG_OF_PERICENTER": 227.3736, "MEAN_ANOMALY": 131.871, "EPHEMERIS_TYPE": 0, "CLASSIFICATION_TYPE": "U", "NORAD_CAT_ID": 18361, "ELEMENT_SET_NO": 999, "REV_AT_EPOCH": 87540, "BSTAR": 0.00026683303, "MEAN_MOTION_DOT": 1.69e-06, "MEAN_MOTION_DDOT": 0}, "tle": {"line1": "1 18361U 87080A   25345.50347395  .00000169  00000+0  26683-3 0  9990", "line2": "2 18361  90.3742  79.2261 0102812 227.3736 131.8710 13.44906405875408"}}, "geometry": {"type": "Point", "coordinates": [79.46543953560895, -29.489215998852234]}}, {"type": "Feature", "properties": {"norad_id": 18362, "name": "OSCAR 29", "group": "nnss", "lat": -16.434395070546692, "lon": 79.82325204768858, "alt_km": 1103.611221404596, "timestamp": "2025-12-12T05:47:29.039566+00:00", "meta": {"OBJECT_NAME": "OSCAR 29", "OBJECT_ID": "1987-080B", "EPOCH": "2025-12-11T18:08:47.571360", "MEAN_MOTION": 13.4444819, "ECCENTRICITY": 0.010387, "INCLINATION": 90.3753, "RA_OF_ASC_NODE": 79.6943, "ARG_OF_PERICENTER": 250.0178, "MEAN_ANOMALY": 265.478, "EPHEMERIS_TYPE": 0, "CLASSIFICATION_TYPE": "U", "NORAD_CAT_ID": 18362, "ELEMENT_SET_NO": 999, "REV_AT_EPOCH": 87496, "BSTAR": 0.00022945701, "MEAN_MOTION_DOT": 1.45e-06, "MEAN_MOTION_DDOT": 0}, "tle": {"line1": "1 18362U 87080B   25345.75610615  .00000145  00000+0  22946-3 0  9998", "line2": "2 18362  90.3753  79.6943 0103870 250.0178 265.4780 13.44448190874963"}}, "geometry": {"type": "Point", "coordinates": [79.82325204768858, -16.434395070546692]}}, {"type": "Feature", "properties": {"norad_id": 19070, "name": "OSCAR 23", "group": "nnss", "lat": 33.42110304796261, "lon": -163.41057725299967, "alt_km": 1034.965318736041, "timestamp": "2025-12-12T05:47:29.039577+00:00", "meta": {"OBJECT_NAME": "OSCAR 23", "OBJECT_ID": "1988-033A", "EPOCH": "2025-12-11T23:57:56.968992", "MEAN_MOTION": 13.27787062, "ECCENTRICITY": 0.01894747, "INCLINATION": 90.3213, "RA_OF_ASC_NODE": 16.3697, "ARG_OF_PERICENTER": 181.9809, "MEAN_ANOMALY": 246.139, "EPHEMERIS_TYPE": 0, "CLASSIFICATION_TYPE": "U", "NORAD_CAT_ID": 19070, "ELEMENT_SET_NO": 999, "REV_AT_EPOCH": 82243, "BSTAR": 0.00020694446, "MEAN_MOTION_DOT": 1.11e-06, "MEAN_MOTION_DDOT": 0}, "tle": {"line1": "1 19070U 88033A   25345.99857603  .00000111  00000+0  20694-3 0  9991", "line2": "2 19070  90.3213  16.3697 0189474 181.9809 246.1390 13.27787062822435"}}, "geometry": {"type": "Point", "coordinates": [-163.41057725299967, 33.42110304796261]}}, {"type": "Feature", "properties": {"norad_id": 19071, "name": "OSCAR 32", "group": "nnss", "lat": -79.90220947471296, "lon": -165.29869106115473, "alt_km": 1163.5150003041863, "timestamp": "2025-12-12T05:47:29.039601+00:00", "meta": {"OBJECT_NAME": "OSCAR 32", "OBJECT_ID": "1988-033B", "EPOCH": "2025-12-12T01:01:40.430784", "MEAN_MOTION": 13.2795382, "ECCENTRICITY": 0.01883002, "INCLINATION": 90.3217, "RA_OF_ASC_NODE": 16.5029, "ARG_OF_PERICENTER": 168.7275, "MEAN_ANOMALY": 220.696, "EPHEMERIS_TYPE": 0, "CLASSIFICATION_TYPE": "U", "NORAD_CAT_ID": 19071, "ELEMENT_SET_NO": 999, "REV_AT_EPOCH": 82256, "BSTAR": 0.000141287, "MEAN_MOTION_DOT": 7.9e-07, "MEAN_MOTION_DDOT": 0}, "tle": {"line1": "1 19071U 88033B   25346.04282906  .00000079  00000+0  14129-3 0  9996", "line2": "2 19071  90.3217  16.5029 0188300 168.7275 220.6960 13.27953820822569"}}, "geometry": {"type": "Point", "coordinates": [-165.29869106115473, -79.90220947471296]}}, {"type": "Feature", "properties": {"norad_id": 19223, "name": "NOVA 2", "group": "nnss", "lat": 75.67693960679807, "lon": -101.77712181329265, "alt_km": 1164.7890878613343, "timestamp": "2025-12-12T05:47:29.039614+00:00", "meta": {"OBJECT_NAME": "NOVA 2", "OBJECT_ID": "1988-052A", "EPOCH": "2025-12-11T20:48:30.108096", "MEAN_MOTION": 13.22935796, "ECCENTRICITY": 0.00306659, "INCLINATION": 89.9872, "RA_OF_ASC_NODE": 78.2735, "ARG_OF_PERICENTER": 19.2883, "MEAN_ANOMALY": 103.0937, "EPHEMERIS_TYPE": 0, "CLASSIFICATION_TYPE": "U", "NORAD_CAT_ID": 19223, "ELEMENT_SET_NO": 999, "REV_AT_EPOCH": 80936, "BSTAR": 0.00020973634, "MEAN_MOTION_DOT": 9.7e-07, "MEAN_MOTION_DDOT": 0}, "tle": {"line1": "1 19223U 88052A   25345.86701514  .00000097  00000+0  20974-3 0  9991", "line2": "2 19223  89.9872  78.2735 0030665  19.2883 103.0937 13.22935796809361"}}, "geometry": {"type": "Point", "coordinates": [-101.77712181329265, 75.67693960679807]}}, {"type": "Feature", "properties": {"norad_id": 19419, "name": "OSCAR 25", "group": "nnss", "lat": 36.10345212462956, "lon": -159.7319738364076, "alt_km": 1112.8869400455023, "timestamp": "2025-12-12T05:47:29.039625+00:00", "meta": {"OBJECT_NAME": "OSCAR 25", "OBJECT_ID": "1988-074A", "EPOCH": "2025-12-12T00:01:52.442688", "MEAN_MOTION": 13.42623124, "ECCENTRICITY": 0.00944224, "INCLINATION": 90.0348, "RA_OF_ASC_NODE": 20.2418, "ARG_OF_PERICENTER": 247.9903, "MEAN_ANOMALY": 177.4982, "EPHEMERIS_TYPE": 0, "CLASSIFICATION_TYPE": "U", "NORAD_CAT_ID": 19419, "ELEMENT_SET_NO": 999, "REV_AT_EPOCH": 82630, "BSTAR": 0.00021314801, "MEAN_MOTION_DOT": 1.32e-06, "MEAN_MOTION_DDOT": 0}, "tle": {"line1": "1 19419U 88074A   25346.00130142  .00000132  00000+0  21315-3 0  9992", "line2": "2 19419  90.0348  20.2418 0094422 247.9903 177.4982 13.42623124826307"}}, "geometry": {"type": "Point", "coordinates": [-159.7319738364076, 36.10345212462956]}}, {"type": "Feature", "properties": {"norad_id": 19420, "name": "OSCAR 31", "group": "nnss", "lat": 29.177225387513165, "lon": 20.57224795535812, "alt_km": 1156.8021304051308, "timestamp": "2025-12-12T05:47:29.039635+00:00", "meta": {"OBJECT_NAME": "OSCAR 31", "OBJECT_ID": "1988-074B", "EPOCH": "2025-12-12T00:35:45.471840", "MEAN_MOTION": 13.42584505, "ECCENTRICITY": 0.00927026, "INCLINATION": 90.0364, "RA_OF_ASC_NODE": 20.5918, "ARG_OF_PERICENTER": 242.0101, "MEAN_ANOMALY": 181.015, "EPHEMERIS_TYPE": 0, "CLASSIFICATION_TYPE": "U", "NORAD_CAT_ID": 19420, "ELEMENT_SET_NO": 999, "REV_AT_EPOCH": 82641, "BSTAR": 0.00019741407, "MEAN_MOTION_DOT": 1.23e-06, "MEAN_MOTION_DDOT": 0}, "tle": {"line1": "1 19420U 88074B   25346.02483185  .00000123  00000+0  19741-3 0  9994", "line2": "2 19420  90.0364  20.5918 0092702 242.0101 181.0150 13.42584505826419"}}, "geometry": {"type": "Point", "coordinates": [20.57224795535812, 29.177225387513165]}}]}